NORAD_CAT_ID,OBJECT_NAME,OBJECT_TYPE,EPOCH,MEAN_MOTION,ECCENTRICITY,INCLINATION,RA_OF_ASC_NODE,ARG_OF_PERICENTER,MEAN_ANOMALY,BSTAR,MEAN_MOTION_DOT,MEAN_MOTION_DDOT,TLE_LINE0,TLE_LINE1,TLE_LINE2,SEMIMAJOR_AXIS,PERIOD,APOGEE,PERIGEE,DECAYED
51853.0,STARLINK-3539,PAYLOAD,2024-04-03 23:00:50,15.08847911,0.000133,53.2159,302.3966,86.9839,273.1305,0.00022597,3.311e-05,0.0,0 STARLINK-3539,1 51853U 22022B   24094.95891877  .00003311  00000-0  22597-3 0  9999,2 51853  53.2159 302.3966 0001330  86.9839 273.1305 15.08847911116573,6917.856,95.437,540.641,538.801,0.0
51853.0,STARLINK-3539,PAYLOAD,2024-04-04 06:57:46,15.0884194,0.0001303,53.2154,300.9076,78.1071,282.0068,9.0509e-05,1.153e-05,0.0,0 STARLINK-3539,1 51853U 22022B   24095.29012124  .00001153  00000-0  90509-4 0  9998,2 51853  53.2154 300.9076 0001303  78.1071 282.0068 15.08841940116622,6917.874,95.437,540.641,538.838,0.0
51853.0,STARLINK-3539,PAYLOAD,2024-04-04 21:16:15,15.08841378,0.0001289,53.2165,298.2306,66.0497,294.063,7.6583e-05,9.31e-06,0.0,0 STARLINK-3539,1 51853U 22022B   24095.88628509  .00000931  00000-0  76583-4 0  9992,2 51853  53.2165 298.2306 0001289  66.0497 294.0630 15.08841378116713,6917.876,95.437,540.633,538.849,0.0
51853.0,STARLINK-3539,PAYLOAD,2024-04-04 22:51:38,15.08839634,0.0001287,53.2167,297.9332,71.0614,289.0517,0.0001074,1.422e-05,0.0,0 STARLINK-3539,1 51853U 22022B   24095.95252517  .00001422  00000-0  10740-3 0  9990,2 51853  53.2167 297.9332 0001287  71.0614 289.0517 15.08839634116726,6917.882,95.438,540.637,538.856,0.0
51853.0,STARLINK-3539,PAYLOAD,2024-04-05 06:48:33,15.08846507,0.0001365,53.217,296.4483,83.575,276.5398,0.00010591,1.398e-05,0.0,0 STARLINK-3539,1 51853U 22022B   24096.28371984  .00001398  00000-0  10591-3 0  9993,2 51853  53.2170 296.4483 0001365  83.5750 276.5398 15.08846507116777,6917.86,95.437,540.67,538.781,0.0
51853.0,STARLINK-3539,PAYLOAD,2024-04-05 19:31:37,15.08852428,0.0001203,53.2168,294.0681,87.2703,272.8427,0.00011158,1.489e-05,0.0,0 STARLINK-3539,1 51853U 22022B   24096.81363228  .00001489  00000-0  11158-3 0  9995,2 51853  53.2168 294.0681 0001203  87.2703 272.8427 15.08852428116858,6917.842,95.437,540.54,538.875,0.0
51853.0,STARLINK-3539,PAYLOAD,2024-04-05 22:42:24,15.08820351,0.0001464,53.2168,293.4735,97.4035,262.7124,0.00066385,0.00010287,0.0,0 STARLINK-3539,1 51853U 22022B   24096.94612128  .00010287  00000-0  66385-3 0  9993,2 51853  53.2168 293.4735 0001464  97.4035 262.7124 15.08820351116875,6917.94,95.439,540.818,538.793,0.0
51853.0,STARLINK-3539,PAYLOAD,2024-04-06 13:00:52,15.0884783,0.0001208,53.2137,290.7993,75.542,284.5707,0.00019846,2.873e-05,0.0,0 STARLINK-3539,1 51853U 22022B   24097.54227421  .00002873  00000-0  19846-3 0  9990,2 51853  53.2137 290.7993 0001208  75.5420 284.5707 15.08847830116968,6917.856,95.437,540.557,538.886,0.0
51853.0,STARLINK-3539,PAYLOAD,2024-04-06 22:33:11,15.08838748,0.000129,53.2151,289.0152,78.7943,281.3194,-1.3319e-06,-3.09e-06,0.0,0 STARLINK-3539,1 51853U 22022B   24097.93971970 -.00000309  00000-0 -13319-5 0  9993,2 51853  53.2151 289.0152 0001290  78.7943 281.3194 15.08838748117029,6917.884,95.438,540.642,538.857,0.0
51853.0,STARLINK-3539,PAYLOAD,2024-04-07 22:23:59,15.08835687,0.0001566,53.2168,284.553,97.0596,263.0575,-1.1133e-05,-4.65e-06,0.0,0 STARLINK-3539,1 51853U 22022B   24098.93332464 -.00000465  00000-0 -11133-4 0  9997,2 51853  53.2168 284.5530 0001566  97.0596 263.0575 15.08835687117176,6917.894,95.438,540.842,538.675,0.0
51853.0,STARLINK-3539,PAYLOAD,2024-04-08 12:42:27,15.08836748,0.0001409,53.2166,281.8765,96.9013,263.2139,7.6552e-05,9.3e-06,0.0,0 STARLINK-3539,1 51853U 22022B   24099.52948299  .00000930  00000-0  76552-4 0  9993,2 51853  53.2166 281.8765 0001409  96.9013 263.2139 15.08836748117269,6917.89,95.438,540.73,538.781,0.0
51853.0,STARLINK-3539,PAYLOAD,2024-04-08 19:03:59,15.08840767,0.0001216,53.2131,280.6871,97.0449,263.0681,0.00011138,1.485e-05,0.0,0 STARLINK-3539,1 51853U 22022B   24099.79443958  .00001485  00000-0  11138-3 0  9998,2 51853  53.2131 280.6871 0001216  97.0449 263.0681 15.08840767117308,6917.878,95.438,540.584,538.902,0.0
51853.0,STARLINK-3539,PAYLOAD,2024-04-09 12:33:14,15.08835371,0.0001505,53.2165,277.4193,102.0145,258.1016,7.7135e-05,9.4e-06,0.0,0 STARLINK-3539,1 51853U 22022B   24100.52308719  .00000940  00000-0  77135-4 0  9992,2 51853  53.2165 277.4193 0001505 102.0145 258.1016 15.08835371117411,6917.895,95.438,540.801,538.718,0.0
51853.0,STARLINK-3539,PAYLOAD,2024-04-09 20:30:10,15.08835021,0.0001495,53.2167,275.9319,100.2217,259.8944,6.9683e-05,8.21e-06,0.0,0 STARLINK-3539,1 51853U 22022B   24100.85428851  .00000821  00000-0  69683-4 0  9995,2 51853  53.2167 275.9319 0001495 100.2217 259.8944 15.08835021117469,6917.896,95.438,540.795,538.726,0.0
51853.0,STARLINK-3539,PAYLOAD,2024-04-10 04:27:06,15.0883305,0.0001421,53.2171,274.4449,98.5557,261.5597,4.6684e-05,4.55e-06,0.0,0 STARLINK-3539,1 51853U 22022B   24101.18549183  .00000455  00000-0  46684-4 0  9993,2 51853  53.2171 274.4449 0001421  98.5557 261.5597 15.08833050117517,6917.902,95.438,540.75,538.784,0.0
51853.0,STARLINK-3539,PAYLOAD,2024-04-10 21:56:20,15.08841026,0.0001343,53.216,271.1722,90.7443,269.3703,4.7851e-05,4.74e-06,0.0,0 STARLINK-3539,1 51853U 22022B   24101.91412797  .00000474  00000-0  47851-4 0  9992,2 51853  53.2160 271.1722 0001343  90.7443 269.3703 15.08841026117623,6917.877,95.437,540.671,538.813,0.0
51853.0,STARLINK-3539,PAYLOAD,2024-04-11 10:39:25,15.08836724,0.000126,53.2145,268.7921,83.9184,276.1952,0.00010632,1.404e-05,0.0,0 STARLINK-3539,1 51853U 22022B   24102.44404985  .00001404  00000-0  10632-3 0  9991,2 51853  53.2145 268.7921 0001260  83.9184 276.1952 15.08836724117703,6917.89,95.438,540.627,538.884,0.0
51853.0,STARLINK-3539,PAYLOAD,2024-04-11 18:36:21,15.08842935,0.0001199,53.2164,267.3055,85.2679,274.845,0.00011441,1.534e-05,0.0,0 STARLINK-3539,1 51853U 22022B   24102.77524630  .00001534  00000-0  11441-3 0  9990,2 51853  53.2164 267.3055 0001199  85.2679 274.8450 15.08842935117756,6917.871,95.437,540.566,538.907,0.0
51853.0,STARLINK-3539,PAYLOAD,2024-04-12 15:16:22,15.08841967,0.0001344,53.217,263.4404,75.6283,284.4858,9.983e-05,1.301e-05,0.0,0 STARLINK-3539,1 51853U 22022B   24103.63636863  .00001301  00000-0  99830-4 0  9999,2 51853  53.2170 263.4404 0001344  75.6283 284.4858 15.08841967117881,6917.874,95.437,540.669,538.81,0.0
51853.0,STARLINK-3539,PAYLOAD,2024-04-13 10:21:00,15.08821078,0.000142,53.2177,259.8726,74.9179,285.197,0.00033937,5.114e-05,0.0,0 STARLINK-3539,1 51853U 22022B   24104.43125995  .00005114  00000-0  33937-3 0  9998,2 51853  53.2177 259.8726 0001420  74.9179 285.1970 15.08821078118004,6917.938,95.439,540.786,538.821,0.0
51853.0,STARLINK-3539,PAYLOAD,2024-04-13 16:42:32,15.08841819,0.0001466,53.2174,258.6822,71.7352,288.3799,9.866e-06,-1.31e-06,0.0,0 STARLINK-3539,1 51853U 22022B   24104.69621157 -.00000131  00000-0  98660-5 0  9998,2 51853  53.2174 258.6822 0001466  71.7352 288.3799 15.08841819118046,6917.875,95.437,540.754,538.726,0.0
51853.0,STARLINK-3539,PAYLOAD,2024-04-14 16:33:19,15.08847834,0.0001522,53.218,254.2229,68.7387,291.3767,0.00016378,2.32e-05,0.0,0 STARLINK-3539,1 51853U 22022B   24105.68980387  .00002320  00000-0  16378-3 0  9996,2 51853  53.2180 254.2229 0001522  68.7387 291.3767 15.08847834118191,6917.856,95.437,540.774,538.669,0.0
51853.0,STARLINK-3539,PAYLOAD,2024-04-15 13:13:20,15.08842273,0.0001235,53.2175,250.3564,74.3937,285.7191,9.8894e-05,1.286e-05,0.0,0 STARLINK-3539,1 51853U 22022B   24106.55092824  .00001286  00000-0  98894-4 0  9997,2 51853  53.2175 250.3564 0001235  74.3937 285.7191 15.08842273118324,6917.873,95.437,540.593,538.884,0.0
51853.0,STARLINK-3539,PAYLOAD,2024-04-15 19:34:52,15.08846781,0.0001279,53.2175,249.1637,84.4818,275.632,0.00011702,1.575e-05,0.0,0 STARLINK-3539,1 51853U 22022B   24106.81588409  .00001575  00000-0  11702-3 0  9998,2 51853  53.2175 249.1637 0001279  84.4818 275.6320 15.08846781118363,6917.86,95.437,540.609,538.84,0.0
51853.0,STARLINK-3539,PAYLOAD,2024-04-16 14:39:29,15.0885137,0.0001524,53.2173,245.5993,93.7336,266.383,0.00010131,1.325e-05,0.0,0 STARLINK-3539,1 51853U 22022B   24107.61076187  .00001325  00000-0  10131-3 0  9990,2 51853  53.2173 245.5993 0001524  93.7336 266.3830 15.08851370118483,6917.846,95.437,540.765,538.656,0.0
51853.0,STARLINK-3539,PAYLOAD,2024-04-16 16:14:52,15.08859323,0.0001193,53.2157,245.2997,69.2627,290.8493,0.00020341,2.953e-05,0.0,0 STARLINK-3539,1 51853U 22022B   24107.67699699  .00002953  00000-0  20341-3 0  9997,2 51853  53.2157 245.2997 0001193  69.2627 290.8493 15.08859323118493,6917.821,95.436,540.512,538.861,0.0
51853.0,STARLINK-3539,PAYLOAD,2024-04-17 12:54:54,15.08830186,0.0001287,53.2137,241.4299,84.8857,275.2282,-0.00011885,-2.178e-05,0.0,0 STARLINK-3539,1 51853U 22022B   24108.53813447 -.00002178  00000-0 -11885-3 0  9996,2 51853  53.2137 241.4299 0001287  84.8857 275.2282 15.08830186118620,6917.91,95.438,540.666,538.885,0.0
51853.0,STARLINK-3539,PAYLOAD,2024-04-17 14:30:18,15.08828644,0.0001292,53.2142,241.1327,64.3132,295.7994,-0.00012698,-2.308e-05,0.0,0 STARLINK-3539,1 51853U 22022B   24108.60437645 -.00002308  00000-0 -12698-3 0  9994,2 51853  53.2142 241.1327 0001292  64.3132 295.7994 15.08828644118634,6917.915,95.438,540.674,538.886,0.0
51853.0,STARLINK-3539,PAYLOAD,2024-04-18 12:45:42,15.0883501,0.0001632,53.2154,236.972,69.2826,290.8341,7.2675e-05,8.69e-06,0.0,0 STARLINK-3539,1 51853U 22022B   24109.53174054  .00000869  00000-0  72675-4 0  9999,2 51853  53.2154 236.9720 0001632  69.2826 290.8341 15.08835010118770,6917.896,95.438,540.89,538.632,0.0
51853.0,STARLINK-3539,PAYLOAD,2024-04-18 15:56:27,15.08854353,0.0001656,53.2154,236.3767,71.4554,288.6618,0.00030023,4.495e-05,0.0,0 STARLINK-3539,1 51853U 22022B   24109.66421177  .00004495  00000-0  30023-3 0  9993,2 51853  53.2154 236.3767 0001656  71.4554 288.6618 15.08854353118799,6917.837,95.437,540.847,538.556,0.0
